CUTE-1 (CO-55)          
1 27844U 03031E   23012.82287749  .00000458  00000+0  22450-3 0  9999
2 27844  98.6795  22.3637 0009287 210.6836 149.3800 14.22583703 13673
CUBESAT XI-IV (CO-57)   
1 27848U 03031J   23011.72645746  .00000391  00000+0  19629-3 0  9996
2 27848  98.6833  21.7529 0008901 229.7446 130.2954 14.22121227 13266
CUBESAT XI-V            
1 28895U 05043F   23012.58258321  .00002313  00000+0  44160-3 0  9992
2 28895  98.1308 146.1487 0016099 198.8817 161.1791 14.64821842918252
CUTE-1.7+APD II (CO-65) 
1 32785U 08021C   23012.68776896  .00003930  00000+0  40690-3 0  9997
2 32785  97.6868 342.3541 0010886 259.0360 100.9633 14.90575955797714
AAUSAT-II               
1 32788U 08021F   23011.92134409  .00009952  00000+0  80892-3 0  9992
2 32788  97.5566 355.3837 0010538 133.2737 226.9368 14.99735449799753
DELFI-C3 (DO-64)        
1 32789U 08021G   23011.79841336  .00035096  00000+0  16091-2 0  9999
2 32789  97.3226  36.1586 0007719 327.7891  32.2872 15.20337877803503
SEEDS II (CO-66)        
1 32791U 08021J   23012.17576534  .00006340  00000+0  59722-3 0  9999
2 32791  97.6381 347.1537 0011629 207.8642 152.1957 14.94114240798426
SWISSCUBE               
1 35932U 09051B   23012.07750475  .00001452  00000+0  33234-3 0  9999
2 35932  98.5416 238.5769 0008350 121.3880 238.8135 14.57194594706514
BEESAT-1                
1 35933U 09051C   23011.55203845  .00001167  00000+0  26945-3 0  9990
2 35933  98.5351 239.5104 0006396 132.2659 227.9082 14.57168252706477
ITUPSAT1                
1 35935U 09051E   23011.56062752  .00001075  00000+0  25393-3 0  9997
2 35935  98.5451 239.5172 0008621 138.4541 221.7312 14.56255082706190
TISAT 1                 
1 36799U 10035E   23012.83281056  .00006589  00000+0  62009-3 0  9991
2 36799  98.1564 236.4021 0012690 122.3685 237.8764 14.94163209679213
M-CUBED & EXP-1 PRIME   
1 37855U 11061F   23011.54367391  .00019181  00000+0  74729-3 0  9993
2 37855 101.7111 246.9197 0139827 156.6766 204.0879 15.17418879613200
AEROCUBE 4.5A           
1 38767U 12048K   23012.72256025  .00014570  00000+0  99591-3 0  9995
2 38767  64.6644 172.7571 0154019 204.2831 155.0974 14.97141204182086
AEROCUBE 4.5B           
1 38768U 12048L   23012.01836531  .00020846  00000+0  12658-2 0  9995
2 38768  64.6659 124.3197 0136421 199.6965 159.8856 15.03013179182451
STRAND-1                
1 39090U 13009E   23011.80194569  .00000426  00000+0  16303-3 0  9990
2 39090  98.3910 209.4059 0009328  17.6205 342.5303 14.35408573517288
BRITE-AUSTRIA           
1 39091U 13009F   23012.76714849  .00000288  00000+0  11517-3 0  9994
2 39091  98.3932 209.5479 0010831  20.5698 339.5922 14.35356701517468
SOMP                    
1 39134U 13015E   23011.61887380  .00047287  00000+0  12739-2 0  9999
2 39134  64.8582  95.1174 0026440 255.4269 104.3934 15.37207423538746
BEESAT-3                
1 39135U 13015F   23011.75782405  .00034379  00000+0  11648-2 0  9993
2 39135  64.8635 136.7155 0032650 253.5333 106.2210 15.29893669537907
BEESAT-2                
1 39136U 13015G   23012.62048457  .00028040  00000+0  10031-2 0  9996
2 39136  64.8723 143.5000 0026054 288.3645  71.4653 15.28389692538296
NEE-01 PEGASO           
1 39151U 13018B   23012.72352698  .00003054  00000+0  39461-3 0  9999
2 39151  98.0000 122.8887 0015416 299.0903  60.8766 14.81608862524663
ESTCUBE 1               
1 39161U 13021C   23012.62328087  .00002041  00000+0  32174-3 0  9997
2 39161  97.8920  89.2720 0010415 106.5038 253.7317 14.73459675520263
POPACS 1                
1 39268U 13055D   23011.70061131  .00028301  00000+0  68584-3 0  9995
2 39268  80.9952  14.2628 0538514 288.2140  66.1167 14.58395616483568
POPACS 2                
1 39269U 13055E   23011.87648531  .00012522  00000+0  32975-3 0  9992
2 39269  81.0094  77.6761 0628762  92.6554 274.6722 14.37659015480079
POPACS 3                
1 39270U 13055F   23012.69423600  .00016444  00000+0  49118-3 0  9997
2 39270  81.0143 113.6667 0677946 194.2702 163.8470 14.24640515479094
ZACUBE-1 (TSHEPISOSAT)  
1 39417U 13066B   23012.83717262  .00004443  00000+0  53304-3 0  9996
2 39417  97.6660 340.3220 0058263  78.2616 282.5127 14.83295288494158
WNISAT-1                
1 39423U 13066H   23012.21083453  .00001095  00000+0  22384-3 0  9997
2 39423  97.7215 242.9783 0172713 205.0447 154.2288 14.53768151484773
TRITON-1                
1 39427U 13066M   23012.68014691  .00004658  00000+0  72047-3 0  9999
2 39427  97.8295 304.6070 0109441 316.3345  42.9240 14.69744254489694
DELFI-N3XT              
1 39428U 13066N   23012.54061781  .00008138  00000+0  12208-2 0  9996
2 39428  97.8288 303.1806 0114238 329.6105  29.8511 14.70459990489427
GOMX-1                  
1 39430U 13066Q   23012.82989141  .00001707  00000+0  30714-3 0  9997
2 39430  97.7970 272.9622 0149133 104.2154 257.5671 14.60812536486858
CUBEBUG-2 (LO-74)       
1 39440U 13066AA  23012.60297860  .00003107  00000+0  41758-3 0  9990
2 39440  97.7552 326.7775 0077655 171.7056 188.5460 14.77886295492364
NEE-02 KRYSAOR          
1 39441U 13066AB  23012.59567574  .00002179  00000+0  30522-3 0  9996
2 39441  97.7662 323.8072 0079436 186.9656 173.0457 14.76370355492042
FUNCUBE-1 (AO-73)       
1 39444U 13066AE  23012.62175253  .00005305  00000+0  61633-3 0  9993
2 39444  97.6531 342.5646 0056785  66.0596 294.6552 14.84589669493133
UWE-3                   
1 39446U 13066AG  23011.85567269  .00003347  00000+0  42693-3 0  9990
2 39446  97.7157 332.3460 0068648 128.8452 231.8914 14.80463066491287
AEROCUBE 5A             
1 39465U 13072D   23011.76885084  .00121117  00000+0  40159-2 0  9996
2 39465 120.4812  21.8450 0152603 136.5166 224.8053 15.19980414181008
BRITE-CA1 (TORONTO)     
1 40020U 14033L   23012.65185657  .00001202  00000+0  20991-3 0  9996
2 40020  97.8010 166.3461 0085430 317.0473  42.4082 14.67372520458447
DUCHIFAT-1              
1 40021U 14033M   23012.62529192  .00009074  00000+0  84007-3 0  9993
2 40021  98.0398 332.1499 0013535  72.7655 287.5045 14.94683907465924
NANOSATC-BR1            
1 40024U 14033Q   23012.80898237  .00007587  00000+0  72967-3 0  9994
2 40024  98.0111 324.5321 0013174  78.6275 281.6423 14.93233333465727
QB50P1                  
1 40025U 14033R   23012.10334914  .00005880  00000+0  58867-3 0  9992
2 40025  97.9818 316.4854 0013338  90.0063 270.2684 14.91728063465366
QB50P2                  
1 40032U 14033Y   23012.07995074  .00005105  00000+0  52049-3 0  9992
2 40032  97.9557 310.9989 0012780  88.0526 272.2155 14.91066853465214
PERSEUS-M2              
1 40037U 14033AD  23012.53800932  .00001996  00000+0  22540-3 0  9993
2 40037  97.9042 298.6721 0015493 109.6289 250.6601 14.87590905464708
PERSEUS-M1              
1 40039U 14033AF  23012.72286032  .00002459  00000+0  27877-3 0  9998
2 40039  97.8920 296.2048 0015391 108.5142 251.7747 14.87201111464614
POLYITAN-1              
1 40042U 14033AJ  23012.56852188  .00006981  00000+0  69202-3 0  9997
2 40042  97.9928 318.4742 0015318  81.1427 279.1524 14.92033086465322
TIGRISAT                
1 40043U 14033AK  23012.06789805  .00003025  00000+0  43895-3 0  9994
2 40043  97.6541 195.1669 0058085 199.1522 160.7505 14.75559631460681
AEROCUBE 6A             
1 40045U 14033AM  23012.78642358  .00004388  00000+0  61214-3 0  9994
2 40045  97.6551 205.1941 0056023 183.1177 176.9693 14.77094421460914
AEROCUBE 6B             
1 40046U 14033AN  23012.76210578  .00005164  00000+0  70895-3 0  9996
2 40046  97.6478 203.5837 0054578 180.8351 179.2778 14.77749654461062
UKUBE-1                 
1 40074U 14037F   23012.52108151  .00004266  00000+0  48969-3 0  9997
2 40074  98.3595 268.9297 0004178 349.6759  10.4370 14.86432353461119
BRITE-PL2 (HEWELIUSZ)   
1 40119U 14049B   23011.97404229  .00002322  00000+0  27365-3 0  9991
2 40119  97.8825 110.5276 0015653 280.7774  79.1678 14.85660757455059
FIREBIRD 4              
1 40378U 15003C   23012.34983726  .00056511  00000+0  12584-2 0  9990
2 40378  99.0793 290.2600 0081912  33.6124 327.0274 15.39878938440453
GRIFEX                  
1 40379U 15003D   23012.68884881  .00024475  00000+0  74131-3 0  9991
2 40379  99.0848 273.6913 0104320  82.7123 278.5955 15.28885773439536
CP10 (EXOCUBE)          
1 40380U 15003E   23012.49117877  .00017374  00000+0  59867-3 0  9995
2 40380  99.0943 265.0148 0115057 111.5002 249.8543 15.23924348438951
EXACTVIEW 9             
1 40936U 15052G   23011.84401222  .00003260  00000+0  35617-3 0  9990
2 40936   6.0028 125.7337 0010903 233.1371 126.7757 14.77667133394120
AEROCUBE 5C             
1 40965U 15058B   23011.74960412  .00004956  00000+0  55583-3 0  9995
2 40965  64.7728 158.7097 0169475 130.6483 230.9500 14.78008952179712
AEROCUBE 7              
1 40966U 15058C   23012.79229809  .00005899  00000+0  65021-3 0  9995
2 40966  64.7721 152.3480 0167196 130.1140 231.4757 14.78718508179899
ATHENOXAT 1             
1 41168U 15077C   23012.23884510  .00042617  00000+0  14200-2 0  9997
2 41168  14.9929 335.3764 0008621 302.0487  95.0435 15.29134687392217
GALASSIA                
1 41170U 15077E   23012.49003215  .00030101  00000+0  10945-2 0  9990
2 41170  14.9889 327.8339 0009724 330.8491  29.1289 15.26090599392291
VELOX-II                
1 41171U 15077F   23011.75845335  .00019884  00000+0  86445-3 0  9990
2 41171  14.9924  58.9308 0007501 143.6006 216.4826 15.19782149391303
HORYU-4                 
1 41340U 16012D   23011.96302379  .00008543  00000+0  58086-3 0  9997
2 41340  31.0044 106.0709 0012761 118.0943 242.0985 15.04983684379144
E-ST@R-II               
1 41459U 16025D   23012.77951497  .00023971  00000+0  90527-3 0  9991
2 41459  98.1902 199.4868 0129043 276.2091  82.4467 15.19479541369213
AAUSAT 4                
1 41460U 16025E   23012.76522168  .00051317  00000+0  15025-2 0  9995
2 41460  98.1744 208.0961 0100823 244.0045 175.0794 15.30081518369811
